{
  "norad_id": 58123,
  "name": "STARLINK-30781",
  "history": [
    {
      "epoch": "2026-03-28T21:08:16.668672Z",
      "apogee_km": 484.13609769231334,
      "perigee_km": 481.7843880013552,
      "latitude_deg": 1.3208615007935405e-05,
      "longitude_deg": -119.38187994809408,
      "height_km": 483.3752290565321,
      "semi_major_axis_km": 6861.097242846834,
      "eccentricity": 0.00017138,
      "inclination_deg": 43.0013,
      "raan_deg": 23.9824,
      "arg_perigee_deg": 237.1286,
      "mean_anomaly_deg": 122.9401,
      "mean_motion_rev_day": 15.27609674
    },
    {
      "epoch": "2026-03-29T04:59:04.118784Z",
      "apogee_km": 484.22538719692056,
      "perigee_km": 481.8623964977687,
      "latitude_deg": -2.562034798348473e-05,
      "longitude_deg": 120.75582502888089,
      "height_km": 482.84995505409165,
      "semi_major_axis_km": 6861.180891847344,
      "eccentricity": 0.0001722,
      "inclination_deg": 43.0025,
      "raan_deg": 22.1401,
      "arg_perigee_deg": 268.602,
      "mean_anomaly_deg": 91.4634,
      "mean_motion_rev_day": 15.27581738
    },
    {
      "epoch": "2026-03-29T23:48:56.979360Z",
      "apogee_km": 484.03946784999243,
      "perigee_km": 482.0624851464445,
      "latitude_deg": 8.360762032448103e-06,
      "longitude_deg": -166.92106680625002,
      "height_km": 483.40619619069736,
      "semi_major_axis_km": 6861.187976498219,
      "eccentricity": 0.00014407,
      "inclination_deg": 43.0,
      "raan_deg": 17.7068,
      "arg_perigee_deg": 234.1592,
      "mean_anomaly_deg": 125.9126,
      "mean_motion_rev_day": 15.27579372
    },
    {
      "epoch": "2026-03-30T12:22:12.412416Z",
      "apogee_km": 484.7139069769901,
      "perigee_km": 481.4205289523661,
      "latitude_deg": -2.547323764271483e-05,
      "longitude_deg": 1.2988070721087834,
      "height_km": 482.7259638635917,
      "semi_major_axis_km": 6861.204217964678,
      "eccentricity": 0.00024,
      "inclination_deg": 43.006,
      "raan_deg": 14.7566,
      "arg_perigee_deg": 274.1581,
      "mean_anomaly_deg": 85.8996,
      "mean_motion_rev_day": 15.27573948
    },
    {
      "epoch": "2026-03-31T11:54:32.998464Z",
      "apogee_km": 484.3884404751843,
      "perigee_km": 481.6201071940168,
      "latitude_deg": 9.369477123599853e-06,
      "longitude_deg": 1.705855777269136,
      "height_km": 482.93028308544746,
      "semi_major_axis_km": 6861.1412738346,
      "eccentricity": 0.00020174,
      "inclination_deg": 43.0051,
      "raan_deg": 9.2161,
      "arg_perigee_deg": 263.8501,
      "mean_anomaly_deg": 96.2121,
      "mean_motion_rev_day": 15.27594969
    },
    {
      "epoch": "2026-04-01T03:36:06.800544Z",
      "apogee_km": 484.41598267200334,
      "perigee_km": 481.64503156257797,
      "latitude_deg": 3.7915107021234524e-05,
      "longitude_deg": 121.97636788338748,
      "height_km": 483.17171750495044,
      "semi_major_axis_km": 6861.16750711729,
      "eccentricity": 0.00020193,
      "inclination_deg": 43.0038,
      "raan_deg": 5.5219,
      "arg_perigee_deg": 254.7807,
      "mean_anomaly_deg": 105.2822,
      "mean_motion_rev_day": 15.27586208
    },
    {
      "epoch": "2026-04-02T10:59:14.431488Z",
      "apogee_km": 484.31494665478476,
      "perigee_km": 481.8305026134949,
      "latitude_deg": 1.3829058681843656e-05,
      "longitude_deg": 2.5241932129720897,
      "height_km": 483.00376095192263,
      "semi_major_axis_km": 6861.20972463414,
      "eccentricity": 0.00018105,
      "inclination_deg": 43.0032,
      "raan_deg": 358.1405,
      "arg_perigee_deg": 262.8934,
      "mean_anomaly_deg": 97.1712,
      "mean_motion_rev_day": 15.27572109
    },
    {
      "epoch": "2026-04-03T18:22:23.145024Z",
      "apogee_km": 483.9487697306122,
      "perigee_km": 482.13055791469833,
      "latitude_deg": 5.31806198442541e-06,
      "longitude_deg": -116.93888904721298,
      "height_km": 483.1711505943628,
      "semi_major_axis_km": 6861.1766638226545,
      "eccentricity": 0.0001325,
      "inclination_deg": 43.0045,
      "raan_deg": 350.7527,
      "arg_perigee_deg": 247.05,
      "mean_anomaly_deg": 113.0212,
      "mean_motion_rev_day": 15.2758315
    },
    {
      "epoch": "2026-04-04T17:54:44.621856Z",
      "apogee_km": 483.97025711876177,
      "perigee_km": 482.1520396094447,
      "latitude_deg": -8.983190757114327e-06,
      "longitude_deg": -116.53511648811103,
      "height_km": 483.02675920366386,
      "semi_major_axis_km": 6861.198148364103,
      "eccentricity": 0.0001325,
      "inclination_deg": 43.0013,
      "raan_deg": 345.2127,
      "arg_perigee_deg": 258.0089,
      "mean_anomaly_deg": 102.0614,
      "mean_motion_rev_day": 15.27575975
    },
    {
      "epoch": "2026-04-05T09:36:19.064160Z",
      "apogee_km": 484.28494350522305,
      "perigee_km": 481.8960013238775,
      "latitude_deg": 4.580137906218491e-05,
      "longitude_deg": 3.7379468388599917,
      "height_km": 483.10866963667377,
      "semi_major_axis_km": 6861.22747241455,
      "eccentricity": 0.00017409,
      "inclination_deg": 43.0063,
      "raan_deg": 341.5237,
      "arg_perigee_deg": 258.3803,
      "mean_anomaly_deg": 101.6854,
      "mean_motion_rev_day": 15.27566182
    },
    {
      "epoch": "2026-04-06T01:17:52.523232Z",
      "apogee_km": 483.91074502357515,
      "perigee_km": 482.13068626582753,
      "latitude_deg": -2.9168321613318994e-05,
      "longitude_deg": 124.0069795812026,
      "height_km": 483.09204825239345,
      "semi_major_axis_km": 6861.157715644701,
      "eccentricity": 0.00012972,
      "inclination_deg": 43.0026,
      "raan_deg": 337.8267,
      "arg_perigee_deg": 250.6754,
      "mean_anomaly_deg": 109.3957,
      "mean_motion_rev_day": 15.27589478
    },
    {
      "epoch": "2026-04-07T08:40:59.398176Z",
      "apogee_km": 483.36308263922,
      "perigee_km": 482.66640129133975,
      "latitude_deg": 3.285702684798599e-05,
      "longitude_deg": 4.556250587338405,
      "height_km": 482.76798554009065,
      "semi_major_axis_km": 6861.151741965279,
      "eccentricity": 5.077e-05,
      "inclination_deg": 42.9989,
      "raan_deg": 330.4435,
      "arg_perigee_deg": 273.7099,
      "mean_anomaly_deg": 86.3695,
      "mean_motion_rev_day": 15.27591473
    },
    {
      "epoch": "2026-04-08T16:04:05.701152Z",
      "apogee_km": 484.8876427035275,
      "perigee_km": 481.1300675645043,
      "latitude_deg": 1.005528119125403e-05,
      "longitude_deg": -114.89497967762678,
      "height_km": 483.1174253926327,
      "semi_major_axis_km": 6861.145855134016,
      "eccentricity": 0.00027383,
      "inclination_deg": 43.0058,
      "raan_deg": 323.0575,
      "arg_perigee_deg": 259.8741,
      "mean_anomaly_deg": 100.1802,
      "mean_motion_rev_day": 15.27593439
    },
    {
      "epoch": "2026-04-08T23:54:52.128288Z",
      "apogee_km": 484.1341309393665,
      "perigee_km": 481.7935350012058,
      "latitude_deg": 2.420212003139742e-06,
      "longitude_deg": 125.24133156620046,
      "height_km": 482.9967976877755,
      "semi_major_axis_km": 6861.100832970285,
      "eccentricity": 0.00017057,
      "inclination_deg": 43.0027,
      "raan_deg": 321.2095,
      "arg_perigee_deg": 257.3752,
      "mean_anomaly_deg": 102.6909,
      "mean_motion_rev_day": 15.27608475
    },
    {
      "epoch": "2026-04-09T23:27:13.808160Z",
      "apogee_km": 484.5902333403401,
      "perigee_km": 481.57472737872195,
      "latitude_deg": -5.029045240027866e-05,
      "longitude_deg": 125.64561272593241,
      "height_km": 483.27716106708516,
      "semi_major_axis_km": 6861.21948035953,
      "eccentricity": 0.00021975,
      "inclination_deg": 43.0032,
      "raan_deg": 315.6709,
      "arg_perigee_deg": 253.9396,
      "mean_anomaly_deg": 106.1213,
      "mean_motion_rev_day": 15.27568851
    },
    {
      "epoch": "2026-04-11T14:41:09.012768Z",
      "apogee_km": 483.92047937823827,
      "perigee_km": 482.1365763409949,
      "latitude_deg": 3.625711993267679e-05,
      "longitude_deg": -113.67601863177299,
      "height_km": 482.7128167341783,
      "semi_major_axis_km": 6861.165527859616,
      "eccentricity": 0.00013,
      "inclination_deg": 43.0034,
      "raan_deg": 306.4404,
      "arg_perigee_deg": 275.9662,
      "mean_anomaly_deg": 84.1042,
      "mean_motion_rev_day": 15.27586869
    },
    {
      "epoch": "2026-04-13T05:55:04.286496Z",
      "apogee_km": 484.0769351282961,
      "perigee_km": 482.0674241837587,
      "latitude_deg": -1.1248192543916493e-05,
      "longitude_deg": 6.9997207139469815,
      "height_km": 483.0750348023106,
      "semi_major_axis_km": 6861.209179656027,
      "eccentricity": 0.00014644,
      "inclination_deg": 43.0025,
      "raan_deg": 297.2077,
      "arg_perigee_deg": 257.0081,
      "mean_anomaly_deg": 103.0607,
      "mean_motion_rev_day": 15.27572291
    },
    {
      "epoch": "2026-04-14T19:34:49.478016Z",
      "apogee_km": 484.1371977869467,
      "perigee_km": 481.96768968483775,
      "latitude_deg": 1.1991647738123553e-06,
      "longitude_deg": 151.65019156329623,
      "height_km": 482.74561031611955,
      "semi_major_axis_km": 6861.189443735892,
      "eccentricity": 0.0001581,
      "inclination_deg": 43.0019,
      "raan_deg": 288.3432,
      "arg_perigee_deg": 274.4361,
      "mean_anomaly_deg": 85.631,
      "mean_motion_rev_day": 15.27578882
    },
    {
      "epoch": "2026-04-15T20:41:22.701984Z",
      "apogee_km": 484.2523593725591,
      "perigee_km": 482.07458260306703,
      "latitude_deg": 2.224620212835298e-05,
      "longitude_deg": 128.07078342086228,
      "height_km": 482.64293823508444,
      "semi_major_axis_km": 6861.300470987812,
      "eccentricity": 0.0001587,
      "inclination_deg": 43.0045,
      "raan_deg": 282.4334,
      "arg_perigee_deg": 285.8766,
      "mean_anomaly_deg": 74.1911,
      "mean_motion_rev_day": 15.27541804
    }
  ]
}